[{"OBJECT_NAME":"ONEWEB-0035","OBJECT_ID":"2020-008N","EPOCH":"2026-01-19T02:38:30.843744","MEAN_MOTION":13.10374527,"ECCENTRICITY":0.00016736,"INCLINATION":87.8765,"RA_OF_ASC_NODE":65.9983,"ARG_OF_PERICENTER":100.3744,"MEAN_ANOMALY":259.7572,"EPHEMERIS_TYPE":0,"CLASSIFICATION_TYPE":"U","NORAD_CAT_ID":45143,"ELEMENT_SET_NO":999,"REV_AT_EPOCH":28841,"BSTAR":0.0019935073,"MEAN_MOTION_DOT":7.09e-6,"MEAN_MOTION_DDOT":0},{"OBJECT_NAME":"ONEWEB-0036","OBJECT_ID":"2020-008P","EPOCH":"2026-01-19T04:14:06.277920","MEAN_MOTION":13.10377221,"ECCENTRICITY":0.00020551,"INCLINATION":87.8778,"RA_OF_ASC_NODE":65.9468,"ARG_OF_PERICENTER":94.0591,"MEAN_ANOMALY":266.0771,"EPHEMERIS_TYPE":0,"CLASSIFICATION_TYPE":"U","NORAD_CAT_ID":45144,"ELEMENT_SET_NO":999,"REV_AT_EPOCH":28885,"BSTAR":0.00091781074,"MEAN_MOTION_DOT":3.33e-6,"MEAN_MOTION_DDOT":0},{"OBJECT_NAME":"ONEWEB-0038","OBJECT_ID":"2020-008Q","EPOCH":"2026-01-19T07:31:58.982304","MEAN_MOTION":13.11414127,"ECCENTRICITY":0.00012486,"INCLINATION":87.8825,"RA_OF_ASC_NODE":50.697,"ARG_OF_PERICENTER":29.2797,"MEAN_ANOMALY":330.8401,"EPHEMERIS_TYPE":0,"CLASSIFICATION_TYPE":"U","NORAD_CAT_ID":45145,"ELEMENT_SET_NO":999,"REV_AT_EPOCH":29081,"BSTAR":0.00072563044,"MEAN_MOTION_DOT":2.7e-6,"MEAN_MOTION_DDOT":0},{"OBJECT_NAME":"ONEWEB-0039","OBJECT_ID":"2020-008R","EPOCH":"2026-01-19T03:49:00.406272","MEAN_MOTION":13.10372161,"ECCENTRICITY":0.00020849,"INCLINATION":87.8776,"RA_OF_ASC_NODE":65.9674,"ARG_OF_PERICENTER":85.904,"MEAN_ANOMALY":274.2326,"EPHEMERIS_TYPE":0,"CLASSIFICATION_TYPE":"U","NORAD_CAT_ID":45146,"ELEMENT_SET_NO":999,"REV_AT_EPOCH":28864,"BSTAR":-0.00082492364,"MEAN_MOTION_DOT":-2.75e-6,"MEAN_MOTION_DDOT":0},{"OBJECT_NAME":"ONEWEB-0040","OBJECT_ID":"2020-008S","EPOCH":"2026-01-19T03:39:25.757280","MEAN_MOTION":13.10372332,"ECCENTRICITY":0.000182,"INCLINATION":87.8769,"RA_OF_ASC_NODE":65.9911,"ARG_OF_PERICENTER":95.3965,"MEAN_ANOMALY":264.737,"EPHEMERIS_TYPE":0,"CLASSIFICATION_TYPE":"U","NORAD_CAT_ID":45147,"ELEMENT_SET_NO":999,"REV_AT_EPOCH":28834,"BSTAR":-0.0017340462,"MEAN_MOTION_DOT":-5.93e-6,"MEAN_MOTION_DDOT":0},{"OBJECT_NAME":"ONEWEB-0043","OBJECT_ID":"2020-008U","EPOCH":"2026-01-19T03:41:49.227936","MEAN_MOTION":13.10372351,"ECCENTRICITY":0.00021996,"INCLINATION":87.8767,"RA_OF_ASC_NODE":65.9718,"ARG_OF_PERICENTER":86.1235,"MEAN_ANOMALY":274.0143,"EPHEMERIS_TYPE":0,"CLASSIFICATION_TYPE":"U","NORAD_CAT_ID":45149,"ELEMENT_SET_NO":999,"REV_AT_EPOCH":28866,"BSTAR":-0.0018645371,"MEAN_MOTION_DOT":-6.38e-6,"MEAN_MOTION_DDOT":0},{"OBJECT_NAME":"ONEWEB-0044","OBJECT_ID":"2020-008V","EPOCH":"2026-01-19T04:22:29.557920","MEAN_MOTION":13.10375187,"ECCENTRICITY":0.0002027,"INCLINATION":87.8778,"RA_OF_ASC_NODE":65.959,"ARG_OF_PERICENTER":93.3518,"MEAN_ANOMALY":266.7842,"EPHEMERIS_TYPE":0,"CLASSIFICATION_TYPE":"U","NORAD_CAT_ID":45150,"ELEMENT_SET_NO":999,"REV_AT_EPOCH":28896,"BSTAR":0.0014913509,"MEAN_MOTION_DOT":5.33e-6,"MEAN_MOTION_DDOT":0},{"OBJECT_NAME":"ONEWEB-0045","OBJECT_ID":"2020-008W","EPOCH":"2026-01-19T07:24:27.655488","MEAN_MOTION":13.11414665,"ECCENTRICITY":0.00018165,"INCLINATION":87.883,"RA_OF_ASC_NODE":50.6838,"ARG_OF_PERICENTER":90.6845,"MEAN_ANOMALY":269.4491,"EPHEMERIS_TYPE":0,"CLASSIFICATION_TYPE":"U","NORAD_CAT_ID":45151,"ELEMENT_SET_NO":999,"REV_AT_EPOCH":29089,"BSTAR":0.0012081646,"MEAN_MOTION_DOT":4.41e-6,"MEAN_MOTION_DDOT":0},{"OBJECT_NAME":"ONEWEB-0047","OBJECT_ID":"2020-008X","EPOCH":"2026-01-19T04:12:53.244864","MEAN_MOTION":13.10391243,"ECCENTRICITY":0.00017286,"INCLINATION":87.8796,"RA_OF_ASC_NODE":65.9695,"ARG_OF_PERICENTER":90.2814,"MEAN_ANOMALY":269.8512,"EPHEMERIS_TYPE":0,"CLASSIFICATION_TYPE":"U","NORAD_CAT_ID":45152,"ELEMENT_SET_NO":999,"REV_AT_EPOCH":28868,"BSTAR":0.0077405033,"MEAN_MOTION_DOT":2.716e-5,"MEAN_MOTION_DDOT":0},{"OBJECT_NAME":"ONEWEB-0048","OBJECT_ID":"2020-008Y","EPOCH":"2026-01-19T04:05:45.434400","MEAN_MOTION":13.10368112,"ECCENTRICITY":0.00017553,"INCLINATION":87.8769,"RA_OF_ASC_NODE":65.9961,"ARG_OF_PERICENTER":98.8293,"MEAN_ANOMALY":261.3033,"EPHEMERIS_TYPE":0,"CLASSIFICATION_TYPE":"U","NORAD_CAT_ID":45153,"ELEMENT_SET_NO":999,"REV_AT_EPOCH":28829,"BSTAR":0.0052271647,"MEAN_MOTION_DOT":1.838e-5,"MEAN_MOTION_DDOT":0},{"OBJECT_NAME":"ONEWEB-0049","OBJECT_ID":"2020-008Z","EPOCH":"2026-01-19T04:10:19.843392","MEAN_MOTION":13.10375944,"ECCENTRICITY":0.00022344,"INCLINATION":87.8768,"RA_OF_ASC_NODE":65.9838,"ARG_OF_PERICENTER":101.1846,"MEAN_ANOMALY":258.9533,"EPHEMERIS_TYPE":0,"CLASSIFICATION_TYPE":"U","NORAD_CAT_ID":45154,"ELEMENT_SET_NO":999,"REV_AT_EPOCH":28851,"BSTAR":0.00045671193,"MEAN_MOTION_DOT":1.72e-6,"MEAN_MOTION_DDOT":0},{"OBJECT_NAME":"ONEWEB-0051","OBJECT_ID":"2020-008AA","EPOCH":"2026-01-19T07:22:01.590240","MEAN_MOTION":13.11414936,"ECCENTRICITY":0.00017838,"INCLINATION":87.8816,"RA_OF_ASC_NODE":50.6999,"ARG_OF_PERICENTER":94.5066,"MEAN_ANOMALY":265.6266,"EPHEMERIS_TYPE":0,"CLASSIFICATION_TYPE":"U","NORAD_CAT_ID":45155,"ELEMENT_SET_NO":999,"REV_AT_EPOCH":29157,"BSTAR":0.0013355781,"MEAN_MOTION_DOT":4.86e-6,"MEAN_MOTION_DDOT":0},{"OBJECT_NAME":"ONEWEB-0052","OBJECT_ID":"2020-008AB","EPOCH":"2026-01-19T04:02:08.903904","MEAN_MOTION":13.10377074,"ECCENTRICITY":0.00022578,"INCLINATION":87.8781,"RA_OF_ASC_NODE":65.9492,"ARG_OF_PERICENTER":100.4067,"MEAN_ANOMALY":259.7314,"EPHEMERIS_TYPE":0,"CLASSIFICATION_TYPE":"U","NORAD_CAT_ID":45156,"ELEMENT_SET_NO":999,"REV_AT_EPOCH":28842,"BSTAR":-0.00046277376,"MEAN_MOTION_DOT":-1.49e-6,"MEAN_MOTION_DDOT":0},{"OBJECT_NAME":"ONEWEB-0053","OBJECT_ID":"2020-008AC","EPOCH":"2026-01-19T03:37:04.631520","MEAN_MOTION":13.10392008,"ECCENTRICITY":0.00018263,"INCLINATION":87.8772,"RA_OF_ASC_NODE":65.9958,"ARG_OF_PERICENTER":86.6583,"MEAN_ANOMALY":273.4753,"EPHEMERIS_TYPE":0,"CLASSIFICATION_TYPE":"U","NORAD_CAT_ID":45157,"ELEMENT_SET_NO":999,"REV_AT_EPOCH":28839,"BSTAR":-0.002337963,"MEAN_MOTION_DOT":-8.04e-6,"MEAN_MOTION_DDOT":0},{"OBJECT_NAME":"ONEWEB-0054","OBJECT_ID":"2020-008AD","EPOCH":"2026-01-19T02:37:18.710976","MEAN_MOTION":13.10375083,"ECCENTRICITY":0.00018616,"INCLINATION":87.8773,"RA_OF_ASC_NODE":65.9766,"ARG_OF_PERICENTER":99.898,"MEAN_ANOMALY":260.2357,"EPHEMERIS_TYPE":0,"CLASSIFICATION_TYPE":"U","NORAD_CAT_ID":45158,"ELEMENT_SET_NO":999,"REV_AT_EPOCH":28850,"BSTAR":0.0020102579,"MEAN_MOTION_DOT":7.14e-6,"MEAN_MOTION_DDOT":0},{"OBJECT_NAME":"ONEWEB-0056","OBJECT_ID":"2020-008AE","EPOCH":"2026-01-19T03:59:44.997792","MEAN_MOTION":13.10376875,"ECCENTRICITY":0.00019564,"INCLINATION":87.8778,"RA_OF_ASC_NODE":65.965,"ARG_OF_PERICENTER":103.366,"MEAN_ANOMALY":256.7685,"EPHEMERIS_TYPE":0,"CLASSIFICATION_TYPE":"U","NORAD_CAT_ID":45159,"ELEMENT_SET_NO":999,"REV_AT_EPOCH":28866,"BSTAR":-0.00069742246,"MEAN_MOTION_DOT":-2.31e-6,"MEAN_MOTION_DDOT":0},{"OBJECT_NAME":"ONEWEB-0057","OBJECT_ID":"2020-008AF","EPOCH":"2026-01-19T04:10:44.024160","MEAN_MOTION":13.10375916,"ECCENTRICITY":0.00020073,"INCLINATION":87.8773,"RA_OF_ASC_NODE":65.9752,"ARG_OF_PERICENTER":95.0738,"MEAN_ANOMALY":265.0619,"EPHEMERIS_TYPE":0,"CLASSIFICATION_TYPE":"U","NORAD_CAT_ID":45160,"ELEMENT_SET_NO":999,"REV_AT_EPOCH":28883,"BSTAR":0.00047852861,"MEAN_MOTION_DOT":1.8e-6,"MEAN_MOTION_DDOT":0}]
