ONEWEB-0035             
1 45143U 20008N   26019.11007921  .00000709  00000+0  19935-2 0  9990
2 45143  87.8765  65.9983 0001673 100.3744 259.7572 13.10374527288419
ONEWEB-0036             
1 45144U 20008P   26019.17646155  .00000333  00000+0  91781-3 0  9998
2 45144  87.8778  65.9468 0002055  94.0591 266.0771 13.10377221288850
ONEWEB-0038             
1 45145U 20008Q   26019.31387711  .00000270  00000+0  72563-3 0  9992
2 45145  87.8825  50.6970 0001248  29.2797 330.8401 13.11414127290811
ONEWEB-0039             
1 45146U 20008R   26019.15903248 -.00000275  00000+0 -82492-3 0  9993
2 45146  87.8776  65.9674 0002084  85.9040 274.2326 13.10372161288641
ONEWEB-0040             
1 45147U 20008S   26019.15238145 -.00000593  00000+0 -17340-2 0  9993
2 45147  87.8769  65.9911 0001820  95.3965 264.7370 13.10372332288346
ONEWEB-0043             
1 45149U 20008U   26019.15404199 -.00000638  00000+0 -18645-2 0  9998
2 45149  87.8767  65.9718 0002199  86.1235 274.0143 13.10372351288667
ONEWEB-0044             
1 45150U 20008V   26019.18228655  .00000533  00000+0  14914-2 0  9991
2 45150  87.8778  65.9590 0002027  93.3518 266.7842 13.10375187288960
ONEWEB-0045             
1 45151U 20008W   26019.30865342  .00000441  00000+0  12082-2 0  9998
2 45151  87.8830  50.6838 0001816  90.6845 269.4491 13.11414665290895
ONEWEB-0047             
1 45152U 20008X   26019.17561626  .00002716  00000+0  77405-2 0  9999
2 45152  87.8796  65.9695 0001728  90.2814 269.8512 13.10391243288688
ONEWEB-0048             
1 45153U 20008Y   26019.17066475  .00001838  00000+0  52272-2 0  9991
2 45153  87.8769  65.9961 0001755  98.8293 261.3033 13.10368112288291
ONEWEB-0049             
1 45154U 20008Z   26019.17384078  .00000172  00000+0  45671-3 0  9990
2 45154  87.8768  65.9838 0002234 101.1846 258.9533 13.10375944288512
ONEWEB-0051             
1 45155U 20008AA  26019.30696285  .00000486  00000+0  13356-2 0  9994
2 45155  87.8816  50.6999 0001783  94.5066 265.6266 13.11414936291577
ONEWEB-0052             
1 45156U 20008AB  26019.16815861 -.00000149  00000+0 -46277-3 0  9999
2 45156  87.8781  65.9492 0002257 100.4067 259.7314 13.10377074288429
ONEWEB-0053             
1 45157U 20008AC  26019.15074805 -.00000804  00000+0 -23380-2 0  9991
2 45157  87.8772  65.9958 0001826  86.6583 273.4753 13.10392008288396
ONEWEB-0054             
1 45158U 20008AD  26019.10924434  .00000714  00000+0  20103-2 0  9997
2 45158  87.8773  65.9766 0001861  99.8980 260.2357 13.10375083288502
ONEWEB-0056             
1 45159U 20008AE  26019.16649303 -.00000231  00000+0 -69742-3 0  9992
2 45159  87.8778  65.9650 0001956 103.3660 256.7685 13.10376875288662
ONEWEB-0057             
1 45160U 20008AF  26019.17412065  .00000180  00000+0  47853-3 0  9998
2 45160  87.8773  65.9752 0002007  95.0738 265.0619 13.10375916288837
